{
  "type": "FeatureCollection",
  "features": [
    {
      "type": "Feature",
      "properties": {
        "norad_id": 28890,
        "name": "BEIJING 1",
        "group": "dmc",
        "lat": 67.09507979539559,
        "lon": -42.70349565906972,
        "alt_km": 665.5889465962446,
        "timestamp": "2025-12-15T15:53:19.544980+00:00",
        "meta_object_name": "BEIJING 1",
        "meta_object_id": "2005-043A",
        "meta_epoch": "2025-12-14T22:58:17.660640",
        "meta_mean_motion": 14.6337014,
        "meta_eccentricity": 0.00154261,
        "meta_inclination": 98.2647,
        "meta_ra_of_asc_node": 116.4687,
        "meta_arg_of_pericenter": 134.5691,
        "meta_mean_anomaly": 225.6773,
        "meta_ephemeris_type": 0,
        "meta_classification_type": "U",
        "meta_norad_cat_id": 28890,
        "meta_element_set_no": 999,
        "meta_rev_at_epoch": 7370,
        "meta_bstar": 0.00015529116,
        "meta_mean_motion_dot": 7.55e-06,
        "meta_mean_motion_ddot": 0,
        "tle_line1": "1 28890U 05043A   25348.95714885  .00000755  00000+0  15529-3 0  9999",
        "tle_line2": "2 28890  98.2647 116.4687 0015426 134.5691 225.6773 14.63370140 73703"
      },
      "geometry": {
        "type": "Point",
        "coordinates": [
          -42.70349565906972,
          67.09507979539559
        ]
      }
    },
    {
      "type": "Feature",
      "properties": {
        "norad_id": 33320,
        "name": "HUANJING 1A (HJ-1A)",
        "group": "dmc",
        "lat": -11.025182253985014,
        "lon": -20.65993586600614,
        "alt_km": 611.616405236543,
        "timestamp": "2025-12-15T15:53:19.545011+00:00",
        "meta_object_name": "HUANJING 1A (HJ-1A)",
        "meta_object_id": "2008-041A",
        "meta_epoch": "2025-12-14T23:44:58.998336",
        "meta_mean_motion": 14.83404436,
        "meta_eccentricity": 0.00199985,
        "meta_inclination": 97.6542,
        "meta_ra_of_asc_node": 337.1942,
        "meta_arg_of_pericenter": 27.2683,
        "meta_mean_anomaly": 332.9577,
        "meta_ephemeris_type": 0,
        "meta_classification_type": "U",
        "meta_norad_cat_id": 33320,
        "meta_element_set_no": 999,
        "meta_rev_at_epoch": 93109,
        "meta_bstar": 0.00026301968,
        "meta_mean_motion_dot": 2.114e-05,
        "meta_mean_motion_ddot": 0,
        "tle_line1": "1 33320U 08041A   25348.98957174  .00002114  00000+0  26302-3 0  9999",
        "tle_line2": "2 33320  97.6542 337.1942 0019998  27.2683 332.9577 14.83404436931094"
      },
      "geometry": {
        "type": "Point",
        "coordinates": [
          -20.65993586600614,
          -11.025182253985014
        ]
      }
    },
    {
      "type": "Feature",
      "properties": {
        "norad_id": 33321,
        "name": "HUANJING 1B (HJ-1B)",
        "group": "dmc",
        "lat": -24.381857041836756,
        "lon": 158.04006837350317,
        "alt_km": 645.8084425791594,
        "timestamp": "2025-12-15T15:53:19.545024+00:00",
        "meta_object_name": "HUANJING 1B (HJ-1B)",
        "meta_object_id": "2008-041B",
        "meta_epoch": "2025-12-14T22:46:38.258688",
        "meta_mean_motion": 14.82831512,
        "meta_eccentricity": 0.00381689,
        "meta_inclination": 97.6403,
        "meta_ra_of_asc_node": 340.8467,
        "meta_arg_of_pericenter": 68.7673,
        "meta_mean_anomaly": 291.7612,
        "meta_ephemeris_type": 0,
        "meta_classification_type": "U",
        "meta_norad_cat_id": 33321,
        "meta_element_set_no": 999,
        "meta_rev_at_epoch": 93110,
        "meta_bstar": 0.00027524274,
        "meta_mean_motion_dot": 2.204e-05,
        "meta_mean_motion_ddot": 0,
        "tle_line1": "1 33321U 08041B   25348.94905392  .00002204  00000+0  27524-3 0  9998",
        "tle_line2": "2 33321  97.6403 340.8467 0038168  68.7673 291.7612 14.82831512931105"
      },
      "geometry": {
        "type": "Point",
        "coordinates": [
          158.04006837350317,
          -24.381857041836756
        ]
      }
    },
    {
      "type": "Feature",
      "properties": {
        "norad_id": 33446,
        "name": "YAOGAN-4",
        "group": "dmc",
        "lat": 64.2936275046859,
        "lon": 116.53652803866365,
        "alt_km": 623.467654568497,
        "timestamp": "2025-12-15T15:53:19.545034+00:00",
        "meta_object_name": "YAOGAN-4",
        "meta_object_id": "2008-061A",
        "meta_epoch": "2025-12-14T19:56:16.699776",
        "meta_mean_motion": 14.82690709,
        "meta_eccentricity": 0.00134312,
        "meta_inclination": 97.9179,
        "meta_ra_of_asc_node": 278.9095,
        "meta_arg_of_pericenter": 315.9902,
        "meta_mean_anomaly": 44.0242,
        "meta_ephemeris_type": 0,
        "meta_classification_type": "U",
        "meta_norad_cat_id": 33446,
        "meta_element_set_no": 999,
        "meta_rev_at_epoch": 91834,
        "meta_bstar": 0.00021548269,
        "meta_mean_motion_dot": 1.687e-05,
        "meta_mean_motion_ddot": 0,
        "tle_line1": "1 33446U 08061A   25348.83074884  .00001687  00000+0  21548-3 0  9993",
        "tle_line2": "2 33446  97.9179 278.9095 0013431 315.9902  44.0242 14.82690709918342"
      },
      "geometry": {
        "type": "Point",
        "coordinates": [
          116.53652803866365,
          64.2936275046859
        ]
      }
    },
    {
      "type": "Feature",
      "properties": {
        "norad_id": 35681,
        "name": "DEIMOS-1",
        "group": "dmc",
        "lat": 16.712385834380264,
        "lon": -27.538497607088498,
        "alt_km": 645.8537029747404,
        "timestamp": "2025-12-15T15:53:19.545045+00:00",
        "meta_object_name": "DEIMOS-1",
        "meta_object_id": "2009-041A",
        "meta_epoch": "2025-12-14T21:14:33.398592",
        "meta_mean_motion": 14.74958653,
        "meta_eccentricity": 0.00027201,
        "meta_inclination": 97.7147,
        "meta_ra_of_asc_node": 149.3884,
        "meta_arg_of_pericenter": 76.4838,
        "meta_mean_anomaly": 283.6675,
        "meta_ephemeris_type": 0,
        "meta_classification_type": "U",
        "meta_norad_cat_id": 35681,
        "meta_element_set_no": 999,
        "meta_rev_at_epoch": 87971,
        "meta_bstar": 0.00019439256,
        "meta_mean_motion_dot": 1.259e-05,
        "meta_mean_motion_ddot": 0,
        "tle_line1": "1 35681U 09041A   25348.88510878  .00001259  00000+0  19439-3 0  9999",
        "tle_line2": "2 35681  97.7147 149.3884 0002720  76.4838 283.6675 14.74958653879715"
      },
      "geometry": {
        "type": "Point",
        "coordinates": [
          -27.538497607088498,
          16.712385834380264
        ]
      }
    },
    {
      "type": "Feature",
      "properties": {
        "norad_id": 35683,
        "name": "UK-DMC 2",
        "group": "dmc",
        "lat": -5.221815430051065,
        "lon": -56.24162675018008,
        "alt_km": 646.8330208365787,
        "timestamp": "2025-12-15T15:53:19.545055+00:00",
        "meta_object_name": "UK-DMC 2",
        "meta_object_id": "2009-041C",
        "meta_epoch": "2025-12-14T22:46:42.124224",
        "meta_mean_motion": 14.75629993,
        "meta_eccentricity": 0.00014859,
        "meta_inclination": 97.8555,
        "meta_ra_of_asc_node": 123.7888,
        "meta_arg_of_pericenter": 96.5163,
        "meta_mean_anomaly": 263.6216,
        "meta_ephemeris_type": 0,
        "meta_classification_type": "U",
        "meta_norad_cat_id": 35683,
        "meta_element_set_no": 999,
        "meta_rev_at_epoch": 87939,
        "meta_bstar": 0.00025271201,
        "meta_mean_motion_dot": 1.676e-05,
        "meta_mean_motion_ddot": 0,
        "tle_line1": "1 35683U 09041C   25348.94909866  .00001676  00000+0  25271-3 0  9991",
        "tle_line2": "2 35683  97.8555 123.7888 0001485  96.5163 263.6216 14.75629993879398"
      },
      "geometry": {
        "type": "Point",
        "coordinates": [
          -56.24162675018008,
          -5.221815430051065
        ]
      }
    },
    {
      "type": "Feature",
      "properties": {
        "norad_id": 40715,
        "name": "DMC3-FM1",
        "group": "dmc",
        "lat": -22.69053703547094,
        "lon": -140.02233995064145,
        "alt_km": 614.8245203467914,
        "timestamp": "2025-12-15T15:53:19.545065+00:00",
        "meta_object_name": "DMC3-FM1",
        "meta_object_id": "2015-032A",
        "meta_epoch": "2025-12-14T22:12:29.572992",
        "meta_mean_motion": 14.85446025,
        "meta_eccentricity": 0.00045036,
        "meta_inclination": 97.6693,
        "meta_ra_of_asc_node": 216.0382,
        "meta_arg_of_pericenter": 312.8036,
        "meta_mean_anomaly": 47.2801,
        "meta_ephemeris_type": 0,
        "meta_classification_type": "U",
        "meta_norad_cat_id": 40715,
        "meta_element_set_no": 999,
        "meta_rev_at_epoch": 56255,
        "meta_bstar": 0.0001544865,
        "meta_mean_motion_dot": 1.28e-05,
        "meta_mean_motion_ddot": 0,
        "tle_line1": "1 40715U 15032A   25348.92534228  .00001280  00000+0  15449-3 0  9991",
        "tle_line2": "2 40715  97.6693 216.0382 0004503 312.8036  47.2801 14.85446025562550"
      },
      "geometry": {
        "type": "Point",
        "coordinates": [
          -140.02233995064145,
          -22.69053703547094
        ]
      }
    },
    {
      "type": "Feature",
      "properties": {
        "norad_id": 40716,
        "name": "DMC3-FM2",
        "group": "dmc",
        "lat": -36.655562732285155,
        "lon": 32.434338215515716,
        "alt_km": 619.133731497237,
        "timestamp": "2025-12-15T15:53:19.545075+00:00",
        "meta_object_name": "DMC3-FM2",
        "meta_object_id": "2015-032B",
        "meta_epoch": "2025-12-14T22:44:52.818720",
        "meta_mean_motion": 14.85450279,
        "meta_eccentricity": 0.00050892,
        "meta_inclination": 97.6752,
        "meta_ra_of_asc_node": 217.5055,
        "meta_arg_of_pericenter": 318.7997,
        "meta_mean_anomaly": 41.2834,
        "meta_ephemeris_type": 0,
        "meta_classification_type": "U",
        "meta_norad_cat_id": 40716,
        "meta_element_set_no": 999,
        "meta_rev_at_epoch": 56255,
        "meta_bstar": 0.00019708011,
        "meta_mean_motion_dot": 1.648e-05,
        "meta_mean_motion_ddot": 0,
        "tle_line1": "1 40716U 15032B   25348.94783355  .00001648  00000+0  19708-3 0  9991",
        "tle_line2": "2 40716  97.6752 217.5055 0005089 318.7997  41.2834 14.85450279562557"
      },
      "geometry": {
        "type": "Point",
        "coordinates": [
          32.434338215515716,
          -36.655562732285155
        ]
      }
    },
    {
      "type": "Feature",
      "properties": {
        "norad_id": 40717,
        "name": "DMC3-FM3",
        "group": "dmc",
        "lat": 76.3184345542883,
        "lon": 73.49616396968993,
        "alt_km": 607.533606455223,
        "timestamp": "2025-12-15T15:53:19.545085+00:00",
        "meta_object_name": "DMC3-FM3",
        "meta_object_id": "2015-032C",
        "meta_epoch": "2025-12-14T21:39:02.636640",
        "meta_mean_motion": 14.85434908,
        "meta_eccentricity": 0.00045095,
        "meta_inclination": 97.6806,
        "meta_ra_of_asc_node": 219.0958,
        "meta_arg_of_pericenter": 320.7708,
        "meta_mean_anomaly": 39.318,
        "meta_ephemeris_type": 0,
        "meta_classification_type": "U",
        "meta_norad_cat_id": 40717,
        "meta_element_set_no": 999,
        "meta_rev_at_epoch": 56255,
        "meta_bstar": 8.7156959e-05,
        "meta_mean_motion_dot": 7e-06,
        "meta_mean_motion_ddot": 0,
        "tle_line1": "1 40717U 15032C   25348.90211385  .00000700  00000+0  87157-4 0  9999",
        "tle_line2": "2 40717  97.6806 219.0958 0004509 320.7708  39.3180 14.85434908562559"
      },
      "geometry": {
        "type": "Point",
        "coordinates": [
          73.49616396968993,
          76.3184345542883
        ]
      }
    }
  ]
}